satname,norad_id,inclination_deg,eccentricity,mean_motion_rev_per_day,perigee_km,apogee_km,l1,l2
STARLINK-1413,45689,53.1562,0.0003227,15.32689605,465.5824404035775,470.0008027359381,1 45689U 20035AJ  26131.24730566  .00039644  00000+0  12434-2 0  9999,2 45689  53.1562 118.7155 0003227  69.6676 290.4672 15.32689605328477
STARLINK-1417,45693,53.0491,0.0005845,15.15509279,515.4012359708022,523.4644951436376,1 45693U 20035AN  26131.30627759  .00018855  00000+0  99682-3 0  9992,2 45693  53.0491 129.8242 0005845  53.0763 307.0765 15.15509279328381
STARLINK-1420,45695,53.0453,0.0006709,15.65313738,367.80771149059274,376.8654969727513,1 45695U 20035AQ  26131.14376377  .00037096  00000+0  36963-3 0  9994,2 45695  53.0453  78.2187 0006709  50.4113 309.7494 15.65313738329103
STARLINK-1422,45696,53.1556,0.0003509,15.32827628,464.9785635423632,469.78274783312463,1 45696U 20035AR  26131.96835565  .00032746  00000+0  10255-2 0  9996,2 45696  53.1556 115.3141 0003509  65.1077 295.0290 15.32827628328662
STARLINK-1351,45697,53.0438,0.0006573,15.6342233,373.33926630136466,382.2205946981994,1 45697U 20035AS  26131.83916959  .00090379  00000+0  95577-3 0  9997,2 45697  53.0438  74.9180 0006573  58.1551 302.0102 15.63422330329215
STARLINK-1400,45700,53.043,0.0005475,15.60982565,381.1148993769257,388.52033468257287,1 45700U 20035AV  26131.88398697  .00084169  00000+0  97996-3 0  9997,2 45700  53.0430  76.8834 0005475  24.4832 335.6440 15.60982565329188
STARLINK-1403,45701,53.1551,0.0003025,15.31819381,468.3124721410377,472.4558274366609,1 45701U 20035AW  26131.63692258  .00039170  00000+0  12626-2 0  9999,2 45701  53.1551 104.2064 0003025  73.6743 286.4591 15.31819381328789
STARLINK-1407,45703,53.03,0.0002465,15.69902133,357.51624749329585,360.8377432930256,1 45703U 20035AY  26131.89575508  .00041233  00000+0  34072-3 0  9990,2 45703  53.0300   5.1613 0002465 351.6777   8.4198 15.69902133330196
STARLINK-1411,45706,53.0352,0.0002519,15.7883362,332.0535272400066,335.43497301382104,1 45706U 20035BB  26132.00002315  .00120397  00000+0  66375-3 0  9998,2 45706  53.0352  28.4530 0002519 127.0956 357.4782 15.78833620  5780
STARLINK-1423,45710,53.0435,0.0007625,15.66269433,364.4452125574144,374.7354967732799,1 45710U 20035BF  26131.57379528  .00037512  00000+0  35959-3 0  9997,2 45710  53.0435  75.7393 0007625  25.2465 334.8921 15.66269433329163
STARLINK-1433,45711,53.0435,0.0007513,15.65864775,365.6823829003715,375.82326474965066,1 45711U 20035BG  26131.93487834  .00034831  00000+0  33985-3 0  9996,2 45711  53.0435  72.4808 0007513  33.1935 326.9549 15.65864775329241
STARLINK-1434,45712,53.0495,0.0003571,15.32220243,466.7444363934155,471.63479706308317,1 45712U 20035BH  26131.16369190  .00039568  00000+0  12592-2 0  9998,2 45712  53.0495  89.3837 0003571  26.4967 333.6215 15.32220243328959
STARLINK-1465,45731,53.0464,0.0001575,15.6016876,386.10364226793536,388.2347137140023,1 45731U 20038B   26131.82137960  .00077049  00000+0  92728-3 0  9999,2 45731  53.0464 277.9040 0001575 221.8300 138.2592 15.60168760326200
STARLINK-1471,45735,53.0446,0.0002726,15.52220107,408.394979793331,412.0960059284389,1 45735U 20038F   26131.48812997  .00014920  00000+0  24892-3 0  9991,2 45735  53.0446 200.3734 0002726  53.7502 306.3758 15.52220107327274
STARLINK-1480,45741,53.0496,0.0004175,15.61562369,380.3206339824783,385.9663031737409,1 45741U 20038M   26131.80599107  .00077950  00000+0  88887-3 0  9995,2 45741  53.0496 271.6717 0004175 295.1144  64.9436 15.61562369326304
STARLINK-1500,45744,53.0346,0.0002514,15.37992547,450.32911571708973,453.76333184200666,1 45744U 20038Q   26131.05823888  .00014151  00000+0  38272-3 0  9998,2 45744  53.0346 259.4406 0002514  92.8122 267.3168 15.37992547326403
STARLINK-1504,45746,53.0203,0.0003032,15.57343057,393.29647134437437,397.4039139780043,1 45746U 20038S   26131.53099241  .00021396  00000+0  29326-3 0  9990,2 45746  53.0203 198.0223 0003032  27.6982 332.4190 15.57343057327293
STARLINK-1506,45747,53.0754,0.0004055,15.2787048,479.39757391583316,484.961290542371,1 45747U 20038T   26131.09796170  .00004281  00000+0  16791-3 0  9993,2 45747  53.0754 273.3041 0004055  93.1644 266.9819 15.27870480326222
STARLINK-1464,45751,53.0469,0.0001692,15.52084255,409.4929448470739,411.7902675274072,1 45751U 20038X   26131.65150433  .00060088  00000+0  97881-3 0  9992,2 45751  53.0469 263.4783 0001692 307.0553  53.0301 15.52084255326409
STARLINK-1477,45754,53.0513,0.0001166,15.17697251,511.9985830327696,513.6055500230841,1 45754U 20038AA  26131.72412668  .00046260  00000+0  22681-2 0  9995,2 45754  53.0513 285.7318 0001166 173.7177 186.3832 15.17697251326090
STARLINK-1478,45755,53.0459,0.0002239,15.65464037,370.39319116218394,373.41585975728503,1 45755U 20038AB  26131.33112503  .00035648  00000+0  35365-3 0  9990,2 45755  53.0459 252.4970 0002239 337.5250  22.5667 15.65464037326510
STARLINK-1493,45759,53.0473,0.0004954,15.60970385,381.5024120007911,388.2031822918034,1 45759U 20038AF  26131.79757384  .00074838  00000+0  87350-3 0  9991,2 45759  53.0473 259.1200 0004954 284.9376  75.1088 15.60970385326468
STARLINK-1494,45760,53.043,0.0006427,15.91856741,292.7969903363846,301.37732346766643,1 45760U 20038AG  26132.00002315  .00194127  25146-4  58424-3 0  9992,2 45760  53.0430 193.0438 0006427 349.0276  41.5467 15.91856741  5871
STARLINK-1502,45764,53.0458,0.0005793,15.57400888,391.2587276018994,399.1062955880334,1 45764U 20038AL  26132.00002315  .00019302  00000+0  26461-3 0  9990,2 45764  53.0458 261.2341 0005793 254.5834 221.7634 15.57400888  5845
STARLINK-1470,45772,53.0439,0.0002426,15.3336051,464.1342310186037,467.45490661579333,1 45772U 20038AU  26131.68013966  .00030007  00000+0  92542-3 0  9994,2 45772  53.0439 240.7150 0002426 301.7615  58.3149 15.33360510326724
STARLINK-1482,45773,53.1586,0.000238,15.35606085,457.49358050363753,460.7481152392238,1 45773U 20038AV  26131.08220929  .00034376  00000+0  98535-3 0  9999,2 45773  53.1586 260.0736 0002380 281.0011  79.0724 15.35606085326410
STARLINK-1496,45780,53.0466,0.0006476,15.59035305,386.0644687833674,394.83113982190025,1 45780U 20038BC  26131.68348985  .00075517  00000+0  94841-3 0  9994,2 45780  53.0466 233.8833 0006476 349.1088  10.9783 15.59035305326809
STARLINK-1513,45786,53.159,0.0001112,15.31699834,469.97889488615965,471.50208523995025,1 45786U 20038BJ  26131.36686432  .00001586  00000+0  62856-4 0  9994,2 45786  53.1590 259.7425 0001112  91.3420 268.7709 15.31699834326440
STARLINK-1522,46027,53.0628,0.0002073,15.12040863,528.5448428417003,531.4089468625061,1 46027U 20055A   26131.53695187  .00014220  00000+0  83325-3 0  9990,2 46027  53.0628 202.5846 0002073 332.2733  27.8147 15.12040863318389
STARLINK-1523,46028,53.1605,0.0001229,15.30181929,474.42674309833455,476.1113102996969,1 46028U 20055B   26131.87760106  .00001650  00000+0  67843-4 0  9993,2 46028  53.1605 193.2009 0001229  88.9344 271.1798 15.30181929318574
STARLINK-1526,46029,53.16,0.0001531,15.30182969,474.21666539984926,476.3151773743775,1 46029U 20055C   26131.87128149  .00001658  00000+0  68133-4 0  9990,2 46029  53.1600 193.2411 0001531 106.7097 253.4072 15.30182969318569
STARLINK-1555,46032,53.1595,0.0001188,15.30202226,474.39424555636924,476.02260042887247,1 46032U 20055F   26131.52889466 -.00000725  00000+0 -12362-4 0  9991,2 46032  53.1595 194.8141 0001188  77.9886 282.1248 15.30202226318514
STARLINK-1556,46033,53.1605,9.6e-05,15.30212116,474.5209751401726,475.8368117917189,1 46033U 20055G   26131.44673788  .00009386  00000+0  32848-3 0  9991,2 46033  53.1605 195.2120 0000960  85.0133 275.0978 15.30212116318476
STARLINK-1557,46034,53.1618,0.0001185,15.30194674,474.41884783675596,476.04309604610626,1 46034U 20055H   26131.44988759  .00001582  00000+0  65528-4 0  9991,2 46034  53.1618 195.1951 0001185  78.6953 281.4181 15.30194674318475
STARLINK-1558,46035,53.1603,0.0001227,15.3019168,474.39900220514664,476.0808208992412,1 46035U 20055J   26131.45726383  .00001357  00000+0  57949-4 0  9994,2 46035  53.1603 195.1598 0001227  92.2643 267.8498 15.30191680318509
STARLINK-1560,46036,53.1621,0.0001219,15.30192252,474.4027772110285,476.073630085677,1 46036U 20055K   26131.90076885  .00000670  00000+0  34744-4 0  9995,2 46036  53.1621 193.1098 0001219  85.9323 274.1817 15.30192252318577
STARLINK-1569,46039,53.1603,0.0001244,15.30188459,474.39696769742113,476.1020902658329,1 46039U 20055N   26131.39510473  .00001473  00000+0  61873-4 0  9992,2 46039  53.1603 195.4411 0001244  83.0082 277.1061 15.30188459318481
STARLINK-1582,46043,53.1595,0.0001245,15.31702417,469.88010599500194,471.5854745727829,1 46043U 20055S   26131.89614311  .00005693  00000+0  19507-3 0  9992,2 46043  53.1595 192.8075 0001245  88.8038 271.3106 15.31702417318560
STARLINK-1591,46045,53.1595,0.0001395,15.30179961,474.3188519537807,476.2309538746931,1 46045U 20055U   26131.88497109 -.00000960  00000+0 -20285-4 0  9997,2 46045  53.1595 193.1689 0001395  90.1744 269.9416 15.30179961318549
STARLINK-1524,46047,53.1586,0.0011688,15.34793221,453.5405457179859,469.528962410287,1 46047U 20055W   26131.60178032  .00463637  00000+0  12734-1 0  9999,2 46047  53.1586 181.4454 0011688 306.7400  53.2528 15.34793221318703
STARLINK-1527,46048,53.1609,0.0001187,15.31698301,469.93209756041415,471.5580221614264,1 46048U 20055X   26131.40404850  .00000652  00000+0  32765-4 0  9991,2 46048  53.1609 182.3766 0001187  93.0101 267.1037 15.31698301318647
STARLINK-1540,46051,53.159,0.0001214,15.30192121,474.4065949968599,476.07059459127686,1 46051U 20055AA  26131.84331782  .00001284  00000+0  55489-4 0  9996,2 46051  53.1590 180.5000 0001214  96.8762 263.2377 15.30192121318750
STARLINK-1541,46052,53.1595,0.0001937,15.76411802,339.31531080720924,341.9181560035313,1 46052U 20055AB  26132.00002315  .00039548  00000+0  24793-3 0  9990,2 46052  53.1595 172.9533 0001937  66.4817 340.3571 15.76411802  5653
